start=new Date('2022-06-17T00:00:00.000Z').valueOf();
sats=[{"REV_AT_EPOCH":"130","MEAN_MOTION_DOT":"-0.00713056","INCLINATION":"53.2172","RA_OF_ASC_NODE":"101.3897","SITE":"AFETR","RCS_SIZE":"LARGE","LAUNCH_DATE":"2022-04-21","TIME_SYSTEM":"UTC","TLE_LINE1":"1 52286U 22041AB  22167.08334491 -.00713056  00000-0 -11445-1 0  9992","DECAY_DATE":null,"ELEMENT_SET_NO":"999","SEMIMAJOR_AXIS":"6780.498","CENTER_NAME":"EARTH","OBJECT_NAME":"STARLINK-3802","CLASSIFICATION_TYPE":"U","EPOCH":"2022-06-16T02:00:01.000224","PERIOD":"92.609","BSTAR":"-0.01144500000000","COUNTRY_CODE":"US","APOAPSIS":"403.175","FILE":"3497002","MEAN_MOTION":"15.54928298","MEAN_MOTION_DDOT":"0.0000000000000","ECCENTRICITY":"0.00011970","TLE_LINE2":"2 52286  53.2172 101.3897 0001197  86.8104 180.5229 15.54928298  1303","EPHEMERIS_TYPE":"0","NORAD_CAT_ID":"52286","MEAN_ANOMALY":"180.5229","ARG_OF_PERICENTER":"86.8104","MEAN_ELEMENT_THEORY":"SGP4","PERIAPSIS":"401.551","OBJECT_ID":"2022-041AB","GP_ID":"206291286","REF_FRAME":"TEME","OBJECT_TYPE":"PAYLOAD"},{"INCLINATION":"53.2173","RA_OF_ASC_NODE":"106.8561","MEAN_MOTION_DOT":"-0.00724486","REV_AT_EPOCH":"130","RCS_SIZE":"LARGE","SITE":"AFETR","DECAY_DATE":null,"ELEMENT_SET_NO":"999","LAUNCH_DATE":"2022-04-21","TIME_SYSTEM":"UTC","TLE_LINE1":"1 52287U 22041AC  22167.08334491 -.00724486  00000-0 -27798-1 0  9990","OBJECT_NAME":"STARLINK-3822","CLASSIFICATION_TYPE":"U","SEMIMAJOR_AXIS":"6859.058","CENTER_NAME":"EARTH","COUNTRY_CODE":"US","FILE":"3497002","APOAPSIS":"482.168","EPOCH":"2022-06-16T02:00:01.000224","PERIOD":"94.223","BSTAR":"-0.02779800000000","MEAN_MOTION":"15.28291121","TLE_LINE2":"2 52287  53.2173 106.8561 0001816  40.3696 171.9574 15.28291121  1308","MEAN_MOTION_DDOT":"0.0000000000000","ECCENTRICITY":"0.00018160","PERIAPSIS":"479.677","OBJECT_ID":"2022-041AC","GP_ID":"206291184","REF_FRAME":"TEME","OBJECT_TYPE":"PAYLOAD","EPHEMERIS_TYPE":"0","NORAD_CAT_ID":"52287","ARG_OF_PERICENTER":"40.3696","MEAN_ANOMALY":"171.9574","MEAN_ELEMENT_THEORY":"SGP4"},{"REF_FRAME":"TEME","OBJECT_TYPE":"PAYLOAD","PERIAPSIS":"401.516","OBJECT_ID":"2022-041AD","GP_ID":"206291730","MEAN_ELEMENT_THEORY":"SGP4","MEAN_ANOMALY":"191.1134","ARG_OF_PERICENTER":"77.0092","EPHEMERIS_TYPE":"0","NORAD_CAT_ID":"52288","TLE_LINE2":"2 52288  53.2172 101.3995 0001229  77.0092 191.1134 15.54932886  1309","ECCENTRICITY":"0.00012290","MEAN_MOTION_DDOT":"0.0000000000000","MEAN_MOTION":"15.54932886","COUNTRY_CODE":"US","FILE":"3497002","APOAPSIS":"403.183","BSTAR":"-0.01144100000000","EPOCH":"2022-06-16T02:00:01.000224","PERIOD":"92.608","CLASSIFICATION_TYPE":"U","OBJECT_NAME":"STARLINK-3776","CENTER_NAME":"EARTH","SEMIMAJOR_AXIS":"6780.485","DECAY_DATE":null,"ELEMENT_SET_NO":"999","TLE_LINE1":"1 52288U 22041AD  22167.08334491 -.00712944  00000-0 -11441-1 0  9995","TIME_SYSTEM":"UTC","LAUNCH_DATE":"2022-04-21","RCS_SIZE":"LARGE","SITE":"AFETR","RA_OF_ASC_NODE":"101.3995","INCLINATION":"53.2172","MEAN_MOTION_DOT":"-0.00712944","REV_AT_EPOCH":"130"},{"CENTER_NAME":"EARTH","SEMIMAJOR_AXIS":"6780.539","CLASSIFICATION_TYPE":"U","OBJECT_NAME":"STARLINK-3751","TLE_LINE1":"1 52289U 22041AE  22167.08334491 -.00712892  00000-0 -11448-1 0  9995","TIME_SYSTEM":"UTC","LAUNCH_DATE":"2022-04-21","ELEMENT_SET_NO":"999","DECAY_DATE":null,"SITE":"AFETR","RCS_SIZE":"LARGE","MEAN_MOTION_DOT":"-0.00712892","REV_AT_EPOCH":"130","RA_OF_ASC_NODE":"101.3603","INCLINATION":"53.2172","MEAN_ANOMALY":"182.8156","ARG_OF_PERICENTER":"82.1496","MEAN_ELEMENT_THEORY":"SGP4","NORAD_CAT_ID":"52289","EPHEMERIS_TYPE":"0","OBJECT_TYPE":"PAYLOAD","REF_FRAME":"TEME","GP_ID":"206291430","OBJECT_ID":"2022-041AE","PERIAPSIS":"401.577","ECCENTRICITY":"0.00012200","MEAN_MOTION_DDOT":"0.0000000000000","TLE_LINE2":"2 52289  53.2172 101.3603 0001220  82.1496 182.8156 15.54914234  1300","MEAN_MOTION":"15.54914234","BSTAR":"-0.01144800000000","PERIOD":"92.610","EPOCH":"2022-06-16T02:00:01.000224","FILE":"3497002","APOAPSIS":"403.231","COUNTRY_CODE":"US"},{"SITE":"AFETR","RCS_SIZE":"LARGE","MEAN_MOTION_DOT":"-0.00712771","REV_AT_EPOCH":"130","INCLINATION":"53.2172","RA_OF_ASC_NODE":"101.4262","SEMIMAJOR_AXIS":"6780.445","CENTER_NAME":"EARTH","OBJECT_NAME":"STARLINK-3772","CLASSIFICATION_TYPE":"U","TIME_SYSTEM":"UTC","LAUNCH_DATE":"2022-04-21","TLE_LINE1":"1 52290U 22041AF  22167.08334491 -.00712771  00000-0 -11432-1 0  9996","DECAY_DATE":null,"ELEMENT_SET_NO":"999","MEAN_MOTION":"15.54946624","EPOCH":"2022-06-16T02:00:01.000224","PERIOD":"92.608","BSTAR":"-0.01143200000000","COUNTRY_CODE":"US","APOAPSIS":"403.177","FILE":"3497002","EPHEMERIS_TYPE":"0","NORAD_CAT_ID":"52290","MEAN_ELEMENT_THEORY":"SGP4","MEAN_ANOMALY":"204.7730","ARG_OF_PERICENTER":"65.7173","OBJECT_ID":"2022-041AF","PERIAPSIS":"401.443","GP_ID":"206291633","REF_FRAME":"TEME","OBJECT_TYPE":"PAYLOAD","MEAN_MOTION_DDOT":"0.0000000000000","ECCENTRICITY":"0.00012790","TLE_LINE2":"2 52290  53.2172 101.4262 0001279  65.7173 204.7730 15.54946624  1307"},{"APOAPSIS":"403.190","FILE":"3497002","COUNTRY_CODE":"US","PERIOD":"92.609","EPOCH":"2022-06-16T02:00:01.000224","BSTAR":"-0.01144600000000","MEAN_MOTION":"15.54923617","TLE_LINE2":"2 52291  53.2172 101.3800 0001200  90.3734 176.1706 15.54923617  1308","MEAN_MOTION_DDOT":"0.0000000000000","ECCENTRICITY":"0.00012000","GP_ID":"206291530","OBJECT_ID":"2022-041AG","PERIAPSIS":"401.563","OBJECT_TYPE":"PAYLOAD","REF_FRAME":"TEME","NORAD_CAT_ID":"52291","EPHEMERIS_TYPE":"0","MEAN_ANOMALY":"176.1706","ARG_OF_PERICENTER":"90.3734","MEAN_ELEMENT_THEORY":"SGP4","INCLINATION":"53.2172","RA_OF_ASC_NODE":"101.3800","MEAN_MOTION_DOT":"-0.00713001","REV_AT_EPOCH":"130","RCS_SIZE":"LARGE","SITE":"AFETR","ELEMENT_SET_NO":"999","DECAY_DATE":null,"LAUNCH_DATE":"2022-04-21","TIME_SYSTEM":"UTC","TLE_LINE1":"1 52291U 22041AG  22167.08334491 -.00713001  00000-0 -11446-1 0  9999","OBJECT_NAME":"STARLINK-3773","CLASSIFICATION_TYPE":"U","SEMIMAJOR_AXIS":"6780.512","CENTER_NAME":"EARTH"},{"TLE_LINE2":"2 52292  53.2172 101.4373 0001284  63.7256 208.3429 15.54955958  1303","MEAN_MOTION_DDOT":"0.0000000000000","ECCENTRICITY":"0.00012840","OBJECT_ID":"2022-041AH","PERIAPSIS":"401.412","GP_ID":"206291796","REF_FRAME":"TEME","OBJECT_TYPE":"PAYLOAD","EPHEMERIS_TYPE":"0","NORAD_CAT_ID":"52292","ARG_OF_PERICENTER":"63.7256","MEAN_ANOMALY":"208.3429","MEAN_ELEMENT_THEORY":"SGP4","COUNTRY_CODE":"US","FILE":"3497002","APOAPSIS":"403.153","EPOCH":"2022-06-16T02:00:01.000224","PERIOD":"92.607","BSTAR":"-0.01143200000000","MEAN_MOTION":"15.54955958","DECAY_DATE":null,"ELEMENT_SET_NO":"999","TIME_SYSTEM":"UTC","LAUNCH_DATE":"2022-04-21","TLE_LINE1":"1 52292U 22041AH  22167.08334491 -.00712997  00000-0 -11432-1 0  9998","OBJECT_NAME":"STARLINK-3753","CLASSIFICATION_TYPE":"U","SEMIMAJOR_AXIS":"6780.418","CENTER_NAME":"EARTH","INCLINATION":"53.2172","RA_OF_ASC_NODE":"101.4373","REV_AT_EPOCH":"130","MEAN_MOTION_DOT":"-0.00712997","RCS_SIZE":"LARGE","SITE":"AFETR"},{"ELEMENT_SET_NO":"999","DECAY_DATE":null,"TIME_SYSTEM":"UTC","LAUNCH_DATE":"2022-04-21","TLE_LINE1":"1 52293U 22041AJ  22167.08334491 -.00712942  00000-0 -11439-1 0  9996","OBJECT_NAME":"STARLINK-3771","CLASSIFICATION_TYPE":"U","SEMIMAJOR_AXIS":"6780.471","CENTER_NAME":"EARTH","INCLINATION":"53.2172","RA_OF_ASC_NODE":"101.4097","MEAN_MOTION_DOT":"-0.00712942","REV_AT_EPOCH":"130","RCS_SIZE":"LARGE","SITE":"AFETR","TLE_LINE2":"2 52293  53.2172 101.4097 0001229  73.9844 194.9274 15.54937518  1302","MEAN_MOTION_DDOT":"0.0000000000000","ECCENTRICITY":"0.00012290","GP_ID":"206291085","OBJECT_ID":"2022-041AJ","PERIAPSIS":"401.503","OBJECT_TYPE":"PAYLOAD","REF_FRAME":"TEME","NORAD_CAT_ID":"52293","EPHEMERIS_TYPE":"0","MEAN_ELEMENT_THEORY":"SGP4","MEAN_ANOMALY":"194.9274","ARG_OF_PERICENTER":"73.9844","FILE":"3497002","APOAPSIS":"403.170","COUNTRY_CODE":"US","PERIOD":"92.608","EPOCH":"2022-06-16T02:00:01.000224","BSTAR":"-0.01143900000000","MEAN_MOTION":"15.54937518"},{"MEAN_MOTION":"15.54960471","BSTAR":"-0.01142700000000","EPOCH":"2022-06-16T02:00:01.000224","PERIOD":"92.607","COUNTRY_CODE":"US","FILE":"3497002","APOAPSIS":"403.124","MEAN_ELEMENT_THEORY":"SGP4","MEAN_ANOMALY":"203.9142","ARG_OF_PERICENTER":"68.9434","EPHEMERIS_TYPE":"0","NORAD_CAT_ID":"52294","REF_FRAME":"TEME","OBJECT_TYPE":"PAYLOAD","PERIAPSIS":"401.415","OBJECT_ID":"2022-041AK","GP_ID":"206291287","ECCENTRICITY":"0.00012600","MEAN_MOTION_DDOT":"0.0000000000000","TLE_LINE2":"2 52294  53.2172 101.4471 0001260  68.9434 203.9142 15.54960471  1302","SITE":"AFETR","RCS_SIZE":"LARGE","MEAN_MOTION_DOT":"-0.00712816","REV_AT_EPOCH":"130","RA_OF_ASC_NODE":"101.4471","INCLINATION":"53.2172","CENTER_NAME":"EARTH","SEMIMAJOR_AXIS":"6780.405","CLASSIFICATION_TYPE":"U","OBJECT_NAME":"STARLINK-3777","TLE_LINE1":"1 52294U 22041AK  22167.08334491 -.00712816  00000-0 -11427-1 0  9994","LAUNCH_DATE":"2022-04-21","TIME_SYSTEM":"UTC","DECAY_DATE":null,"ELEMENT_SET_NO":"999"},{"APOAPSIS":"403.155","FILE":"3497002","COUNTRY_CODE":"US","BSTAR":"-0.01143300000000","PERIOD":"92.608","EPOCH":"2022-06-16T02:00:01.000224","MEAN_MOTION":"15.54941984","TLE_LINE2":"2 52295  53.2172 101.4195 0001227  74.7382 194.9629 15.54941984  1303","ECCENTRICITY":"0.00012270","MEAN_MOTION_DDOT":"0.0000000000000","OBJECT_TYPE":"PAYLOAD","REF_FRAME":"TEME","GP_ID":"206291185","OBJECT_ID":"2022-041AL","PERIAPSIS":"401.491","ARG_OF_PERICENTER":"74.7382","MEAN_ANOMALY":"194.9629","MEAN_ELEMENT_THEORY":"SGP4","NORAD_CAT_ID":"52295","EPHEMERIS_TYPE":"0","RA_OF_ASC_NODE":"101.4195","INCLINATION":"53.2172","MEAN_MOTION_DOT":"-0.00712707","REV_AT_EPOCH":"130","RCS_SIZE":"LARGE","SITE":"AFETR","ELEMENT_SET_NO":"999","DECAY_DATE":null,"TLE_LINE1":"1 52295U 22041AL  22167.08334491 -.00712707  00000-0 -11433-1 0  9991","LAUNCH_DATE":"2022-04-21","TIME_SYSTEM":"UTC","CLASSIFICATION_TYPE":"U","OBJECT_NAME":"STARLINK-3765","CENTER_NAME":"EARTH","SEMIMAJOR_AXIS":"6780.458"}];
